TEIKYOSAT-4 (OORURI)    
1 49396U 21102B   26068.67534185  .00002438  00000+0  15740-3 0  9994
2 49396  97.3797 101.9931 0010345 276.5421  83.4630 15.09119208237719
STARLINK-4560           
1 53691U 22105AV  26068.67776497  .00000202  00000+0  18233-4 0  9993
2 53691  97.6028 311.1972 0002314  83.4484 276.7006 15.05644164193303
